#aV2015  1  8  0  0  0.00000000     288 DD+AD WGS84 FIT  NGA
## 1826 345600.00000000   300.00000000 57030 0.0000000000000
+   32     1  2  3  4  5  6  7  8  9 10 11 12 13 14 15 16 17
+         18 19 20 21 22 23 24 25 26 27 28 29 30 31 32  0  0
+          0  0  0  0  0  0  0  0  0  0  0  0  0  0  0  0  0
+          0  0  0  0  0  0  0  0  0  0  0  0  0  0  0  0  0
+          0  0  0  0  0  0  0  0  0  0  0  0  0  0  0  0  0
++         2  2  2  2  2  2  2  2  2  2  2  2  2  2  2  2  2
++         2  2  2  2  2  2  2  2  2  2  2  2  2  2  2  0  0
++         0  0  0  0  0  0  0  0  0  0  0  0  0  0  0  0  0
++         0  0  0  0  0  0  0  0  0  0  0  0  0  0  0  0  0
++         0  0  0  0  0  0  0  0  0  0  0  0  0  0  0  0  0
%c cc cc ccc ccc cccc cccc cccc cccc ccccc ccccc ccccc ccccc
%c cc cc ccc ccc cccc cccc cccc cccc ccccc ccccc ccccc ccccc
%f  0.0000000  0.000000000  0.00000000000  0.000000000000000
%f  0.0000000  0.000000000  0.00000000000  0.000000000000000
%i    0    0    0    0      0      0      0      0         0
%i    0    0    0    0      0      0      0      0         0
/*      NGA, ST. LOUIS,MO.                                  
/*   EPHEMERIS COMPUTED FROM  1 DAYS OF DATA                
/*   EPOCHA SMOOTHER                                       
/* CCCCCCCCCCCCCCCCCCCCCCCCCCCCCCCCCCCCCCCCCCCCCCCCCCCCCCCCC
*  2015  1  8  8  0  0.00000000
P  1  13340.742587 -11990.179035  19482.233046    -10.395385                    
V  1   1844.686520  24866.319654  14165.527806      0.003591                    
P  2 -13750.723918 -14019.667662 -17762.869880    540.600250                    
V  2    462.278979 -23173.268713  17131.078100      0.022435                    
P  3  23179.620853 -12923.833333   1594.675340    133.940826                    
V  3   -236.594788   3470.823718  31597.321230      0.258932                    
P  4  15528.565154   -208.873117  21236.734093     -5.346409                    
V  4   1168.538986  27759.317482   -311.571177     -0.005885                    
P  5 -20069.979072  -2287.116359 -17390.628549   -295.699886                    
V  5  17681.908479 -13136.822654 -18558.973718      0.050188                    
P  6  -6557.454528 -24347.305936  -8384.734024     45.873342                    
V  6   2250.135442 -10696.073062  29320.554599      0.098960                    
P  7   7601.691151 -22606.255310 -11207.318386    429.609359                    
V  7   2438.728667  14482.094719 -27666.320384      0.034079                    
P  8  12702.574574   9881.093370 -21035.608918     17.067552                    
V  8  -3046.756078  26823.597875  10045.753809      0.001915                    
P  9   7741.864823 -13165.195302 -21735.863769    -48.967902                    
V  9  24267.903360  13131.753072    680.913343     -0.108964                    
P 10  -3981.746733 -15744.675780 -21339.179300   -157.840567                    
V 10  23007.263188 -12894.263688   5742.405796     -0.016117                    
P 11  15592.730848  -5149.295851  20359.131596   -549.332425                    
V 11   9602.730535  25618.069765   -702.320983     -0.026492                    
P 12 -24050.239570  10066.183813   4345.998074    259.721340                    
V 12   3921.083916  -4548.108734  31874.902681      0.029175                    
P 13 -22868.069747 -12803.352982   3724.795649    -76.787581                    
V 13  -2649.936428  -4819.844699 -31708.088319     -0.034855                    
P 14  10312.285193  19280.130238  15411.976808     98.830890                    
V 14 -16949.692843  -8929.693042  22713.375957     -0.035764                    
P 15 -22716.816570    370.033911  13927.735081   -225.072624                    
V 15 -14839.357822 -10100.142221 -23481.170991     -0.022436                    
P 16  19690.582336   2829.199742 -17840.617452   -166.728233                    
V 16 -19301.327056  11270.252007 -19220.018574      0.031147                    
P 17  -8868.717342 -18824.522695  16918.506289   -148.745632                    
V 17  18564.493964   9546.877422  20483.563134     -0.022056                    
P 18 -10375.283663  19719.714783  14693.918796    370.778559                    
V 18 -16842.055955   7215.452827 -22608.394207      0.026799                    
P 19  23452.663884   6779.171684  10828.179532   -495.786487                    
V 19  10403.584116   9334.859764 -27488.984729     -0.015099                    
P 20  17185.752712 -18940.033468  -7253.112543    276.291486                    
V 20   9501.460385  -2225.264195  29149.812867      0.041889                    
P 21  -3008.904570  25455.172551  -5415.908620   -404.944962                    
V 21  -4316.239513  -7666.158526 -30358.480775     -0.023220                    
P 22   2509.563521  16846.535549  20563.870137    305.081784                    
V 22 -22394.808370  12893.872873  -8083.560584      0.040476                    
P 23  18003.995153  -5427.068799 -18787.732282    -80.189582                    
V 23  20379.784100  12789.955156  15304.318455     -0.026837                    
P 24 -14251.862815   8644.498358  20627.786771    -41.418525                    
V 24  -2048.019816 -26231.573887   9698.540571     -0.006025                    
P 25 -18351.256319  17462.864998  -7801.599888      4.590034                    
V 25  -9544.683908   3229.969931  30125.645393     -0.023732                    
P 26 -23046.315871 -12870.751791   3394.406162 999999.999999                    
V 26  -2949.416493  -4725.909060 -31460.107901      0.000044                    
P 27  23595.663514  12283.607897    554.370196     42.807045                    
V 27   -597.057177   2611.769406 -31804.016089      0.026841                    
P 28   3716.745478 -17193.616269  20492.546711    410.949681                    
V 28  22134.864004 -10763.003412 -13564.746685      0.026855                    
P 29 -11001.626153  10608.942156 -21686.621020    584.607221                    
V 29 -23309.281781 -14749.234328   4639.800202      0.023680                    
P 30   1623.524400 -26480.568793   -454.653313    -86.381680                    
V 30   2934.846494    722.641682 -31706.486390     -0.002420                    
P 31   7177.846264  22927.719255 -10798.725110    325.898301                    
V 31  -2370.799741  14012.178537  28125.198982     -0.007621                    
P 32  23145.726992  -1670.391151  12402.216306   -252.437362                    
V 32 -12897.948846   9939.848024  25950.086438      0.086293                    
EOF
